STARLINK-30353
1 58113U 23161S   25334.96613644 -.00000531  00000+0 -58096-5 0  9990
2 58113  53.1616 264.3060 0000883  58.7561 301.3526 15.30192321119305